<osm version="0.6" generator="CGImap 0.9.3 (3713874 spike-06.openstreetmap.org)" copyright="OpenStreetMap and contributors" attribution="http://www.openstreetmap.org/copyright" license="http://opendatacommons.org/licenses/odbl/1-0/">
<relation id="2409550" visible="true" version="15" changeset="147140618" timestamp="2024-02-06T15:39:02Z" user="Florist4880" uid="1691769">
<member type="way" ref="180589920" role="outer"/>
<member type="way" ref="181082741" role="outer"/>
<member type="way" ref="191444405" role="outer"/>
<member type="way" ref="191444407" role="outer"/>
<member type="way" ref="33787995" role="outer"/>
<member type="way" ref="180589925" role="outer"/>
<member type="node" ref="160258541" role="label"/>
<tag k="addr:region" v="Ставропольский край"/>
<tag k="alt_name:cs" v="Pětihoří"/>
<tag k="name" v="Пятигорск"/>
<tag k="name:ca" v="Piatigorsk"/>
<tag k="name:cs" v="Pjatigorsk"/>
<tag k="name:de" v="Pjatigorsk"/>
<tag k="name:en" v="Pyatigorsk"/>
<tag k="name:hr" v="Pjatigorsk"/>
<tag k="name:ko" v="퍄티고르스크"/>
<tag k="name:ru" v="Пятигорск"/>
<tag k="official_status" v="ru:город"/>
<tag k="place" v="city"/>
<tag k="population" v="146262"/>
<tag k="source" v="Bing"/>
<tag k="type" v="multipolygon"/>
<tag k="wikidata" v="Q41970"/>
<tag k="wikipedia" v="ru:Пятигорск"/>
</relation>
</osm>